[
  { 
    "name" : "RESURS P2",
    "tle_line_1" : "1 40360U 14087A   22119.17523345  .00006885  00000+0  19817-3 0  9993",
    "tle_line_2" : "2 40360  97.2065 205.0798 0007632 265.8398 155.1766 15.36053912410690" 
  },
  { 
    "name" : "MMS 1",
    "tle_line_1" : "1 40482U 15011A   22115.16666667 -.00000379  00000+0  00000+0 0  9999",
    "tle_line_2" : "2 40482  32.7764 107.7230 8627353  48.8474  47.2662  0.28420995 13154" 
  },
  { 
    "name" : "MMS 2",
    "tle_line_1" : "1 40483U 15011B   22115.16666667 -.00000380  00000+0  00000+0 0  9992",
    "tle_line_2" : "2 40483  32.7750 107.7294 8628588  48.8412  47.2699  0.28420957 13218" 
  },
  { 
    "name" : "MMS 3",
    "tle_line_1" : "1 40484U 15011C   22117.95509259 -.00000187  00000+0  00000+0 0  9990",
    "tle_line_2" : "2 40484  32.5075 107.0308 8614036  49.5891 331.9915  0.28416917 12896" 
  },
  { 
    "name" : "MMS 4",
    "tle_line_1" : "1 40485U 15011D   22115.16666667 -.00000379  00000+0  00000+0 0  9992",
    "tle_line_2" : "2 40485  32.7800 107.7320 8627690  48.8316  47.2567  0.28424906 13102" 
  },
  { 
    "name" : "ASTROSAT",
    "tle_line_1" : "1 40930U 15052A   22118.48991443  .00001750  00000+0  15574-3 0  9992",
    "tle_line_2" : "2 40930   5.9954 174.5625 0008646 171.8216 188.2053 14.76573544355804" 
  },
  { 
    "name" : "DAMPE",
    "tle_line_1" : "1 41173U 15078A   22119.04361310  .00001308  00000+0  56250-4 0  9993",
    "tle_line_2" : "2 41173  97.3753 110.5774 0014302  21.5484  64.1253 15.24338908354052" 
  },
  { 
    "name" : "PISAT",
    "tle_line_1" : "1 41784U 16059B   22118.37957112  .00000862  00000+0  17288-3 0  9998",
    "tle_line_2" : "2 41784  97.9210 163.6681 0030949 330.1012  29.8422 14.63841120298365" 
  },
  { 
    "name" : "HXMT (HUIYAN)",
    "tle_line_1" : "1 42758U 17034A   22118.88940914  .00004314  00000+0  27278-3 0  9998",
    "tle_line_2" : "2 42758  43.0175 260.8647 0009653 324.3709 173.6906 15.10157685268683" 
  },
  { 
    "name" : "FLYING LAPTOP",
    "tle_line_1" : "1 42831U 17042G   22119.02603432  .00001861  00000+0  19001-3 0  9996",
    "tle_line_2" : "2 42831  97.4305 336.3454 0014302 166.5886 193.5749 14.91670845260726" 
  },
  { 
    "name" : "PICSAT",
    "tle_line_1" : "1 43132U 18004X   22119.20495297  .00025321  00000+0  87276-3 0  9994",
    "tle_line_2" : "2 43132  97.3738 195.8975 0008735 165.1251 195.0248 15.29958472238879" 
  },
  { 
    "name" : "ZHANGZHENG-1 (CSES)",
    "tle_line_1" : "1 43194U 18015C   22119.12803418  .00009810  00000+0  44572-3 0  9990",
    "tle_line_2" : "2 43194  97.5141 249.9725 0007815 286.8651 193.3447 15.20943433235123" 
  },
  { 
    "name" : "ICON",
    "tle_line_1" : "1 44628U 19068A   22118.76009636  .00004150  00000+0  37321-3 0  9997",
    "tle_line_2" : "2 44628  26.9897 273.3684 0018516 164.3363 195.7770 14.92632031139120" 
  },
  { 
    "name" : "SALSAT",
    "tle_line_1" : "1 46495U 20068K   22118.47748880  .00003269  00000+0  23877-3 0  9993",
    "tle_line_2" : "2 46495  97.7260  59.7839 0018583  87.1094 273.2258 15.04240088 86674" 
  },
  { 
    "name" : "IXPE",
    "tle_line_1" : "1 49954U 21121A   22117.08956955  .00004075  00000+0  32439-3 0  9997",
    "tle_line_2" : "2 49954   0.2314  39.4123 0011327 259.7478  60.7270 14.91165172 20754" 
  }
]